{"fetched_at":"2026-07-06T18:35:30.052Z","source":"https://celestrak.org/NORAD/elements/gp.php?NAME=EROS&FORMAT=JSON","constellation":"eros","records":[{"OBJECT_NAME":"EROS C3","OBJECT_ID":"2022-179A","EPOCH":"2026-07-06T07:46:11.627616","CLASSIFICATION_TYPE":"U","MEAN_MOTION":15.10981146,"ECCENTRICITY":0.00060214,"INCLINATION":139.3346,"RA_OF_ASC_NODE":114.2192,"ARG_OF_PERICENTER":110.7091,"MEAN_ANOMALY":249.4362,"EPHEMERIS_TYPE":0,"NORAD_CAT_ID":54880,"ELEMENT_SET_NO":999,"REV_AT_EPOCH":19522,"BSTAR":0.00024028331,"MEAN_MOTION_DOT":0.00004334,"MEAN_MOTION_DDOT":0}]}
