{ "54880": {"name": "EROS C3", "norad_id": "54880", "line1": "1 54880U 22179A   26187.32374569  .00004334  00000+0  24028-3 0  9991", "line2": "2 54880 139.3346 114.2192 0006021 110.7091 249.4362 15.10981146195229", "country": "Israel", "operator": "ImageSat International", "sensor": "Panchromatic", "resolution_m": 0.3, "notes": "Commercial 0.30 m, 2023", "fetched_at": 1783341654.0731153, "stale": false}}